CCSDS_OMM_VERS = 2.0
CREATION_DATE  = 
ORIGINATOR     = 

OBJECT_NAME    = STARLINK-36930
OBJECT_ID      = 2026-040D
CENTER_NAME    = EARTH
REF_FRAME      = TEME
TIME_SYSTEM    = UTC
MEAN_ELEMENT_THEORY = SGP/SGP4

EPOCH          = 2026-03-21T22:00:00.999936
MEAN_MOTION    = 15.75148112
ECCENTRICITY   = .00013156
INCLINATION    = 97.2851
RA_OF_ASC_NODE = 29.9615
ARG_OF_PERICENTER = 97.1186
MEAN_ANOMALY   = 125.7033

EPHEMERIS_TYPE = 0
CLASSIFICATION_TYPE = U
NORAD_CAT_ID   = 68018
ELEMENT_SET_NO = 999
REV_AT_EPOCH   = 439
BSTAR          = .88571176E-4
MEAN_MOTION_DOT = .13077E-3
MEAN_MOTION_DDOT = 0

CCSDS_OMM_VERS = 2.0
CREATION_DATE  = 
ORIGINATOR     = 

OBJECT_NAME    = STARLINK-36921
OBJECT_ID      = 2026-040E
CENTER_NAME    = EARTH
REF_FRAME      = TEME
TIME_SYSTEM    = UTC
MEAN_ELEMENT_THEORY = SGP/SGP4

EPOCH          = 2026-03-21T22:00:00.999936
MEAN_MOTION    = 15.75146683
ECCENTRICITY   = .00016453
INCLINATION    = 97.2841
RA_OF_ASC_NODE = 29.9750
ARG_OF_PERICENTER = 68.5651
MEAN_ANOMALY   = 176.2460

EPHEMERIS_TYPE = 0
CLASSIFICATION_TYPE = U
NORAD_CAT_ID   = 68019
ELEMENT_SET_NO = 999
REV_AT_EPOCH   = 439
BSTAR          = .26420271E-3
MEAN_MOTION_DOT = .39386E-3
MEAN_MOTION_DDOT = 0

CCSDS_OMM_VERS = 2.0
CREATION_DATE  = 
ORIGINATOR     = 

OBJECT_NAME    = STARLINK-36928
OBJECT_ID      = 2026-040F
CENTER_NAME    = EARTH
REF_FRAME      = TEME
TIME_SYSTEM    = UTC
MEAN_ELEMENT_THEORY = SGP/SGP4

EPOCH          = 2026-03-21T22:00:00.999936
MEAN_MOTION    = 15.75120188
ECCENTRICITY   = .00011057
INCLINATION    = 97.2846
RA_OF_ASC_NODE = 29.9708
ARG_OF_PERICENTER = 116.9183
MEAN_ANOMALY   = 121.9257

EPHEMERIS_TYPE = 0
CLASSIFICATION_TYPE = U
NORAD_CAT_ID   = 68020
ELEMENT_SET_NO = 999
REV_AT_EPOCH   = 439
BSTAR          = .57161627E-3
MEAN_MOTION_DOT = .8573E-3
MEAN_MOTION_DDOT = 0

CCSDS_OMM_VERS = 2.0
CREATION_DATE  = 
ORIGINATOR     = 

OBJECT_NAME    = STARLINK-36858
OBJECT_ID      = 2026-040G
CENTER_NAME    = EARTH
REF_FRAME      = TEME
TIME_SYSTEM    = UTC
MEAN_ELEMENT_THEORY = SGP/SGP4

EPOCH          = 2026-03-21T13:18:44.154144
MEAN_MOTION    = 15.80826224
ECCENTRICITY   = .00015317
INCLINATION    = 97.2794
RA_OF_ASC_NODE = 29.7491
ARG_OF_PERICENTER = 111.2783
MEAN_ANOMALY   = 248.8649

EPHEMERIS_TYPE = 0
CLASSIFICATION_TYPE = U
NORAD_CAT_ID   = 68021
ELEMENT_SET_NO = 999
REV_AT_EPOCH   = 323
BSTAR          = .28136025E-3
MEAN_MOTION_DOT = .54113E-3
MEAN_MOTION_DDOT = 0

CCSDS_OMM_VERS = 2.0
CREATION_DATE  = 
ORIGINATOR     = 

OBJECT_NAME    = STARLINK-36916
OBJECT_ID      = 2026-040H
CENTER_NAME    = EARTH
REF_FRAME      = TEME
TIME_SYSTEM    = UTC
MEAN_ELEMENT_THEORY = SGP/SGP4

EPOCH          = 2026-03-21T22:00:00.999936
MEAN_MOTION    = 15.75131927
ECCENTRICITY   = .00012008
INCLINATION    = 97.2855
RA_OF_ASC_NODE = 29.9739
ARG_OF_PERICENTER = 78.3569
MEAN_ANOMALY   = 172.4712

EPHEMERIS_TYPE = 0
CLASSIFICATION_TYPE = U
NORAD_CAT_ID   = 68022
ELEMENT_SET_NO = 999
REV_AT_EPOCH   = 439
BSTAR          = .3649127E-3
MEAN_MOTION_DOT = .5451E-3
MEAN_MOTION_DDOT = 0

CCSDS_OMM_VERS = 2.0
CREATION_DATE  = 
ORIGINATOR     = 

OBJECT_NAME    = STARLINK-36871
OBJECT_ID      = 2026-040J
CENTER_NAME    = EARTH
REF_FRAME      = TEME
TIME_SYSTEM    = UTC
MEAN_ELEMENT_THEORY = SGP/SGP4

EPOCH          = 2026-03-21T22:00:00.999936
MEAN_MOTION    = 15.75140325
ECCENTRICITY   = .00014709
INCLINATION    = 97.2852
RA_OF_ASC_NODE = 29.9742
ARG_OF_PERICENTER = 97.6076
MEAN_ANOMALY   = 155.2155

EPHEMERIS_TYPE = 0
CLASSIFICATION_TYPE = U
NORAD_CAT_ID   = 68023
ELEMENT_SET_NO = 999
REV_AT_EPOCH   = 439
BSTAR          = .2729799E-3
MEAN_MOTION_DOT = .40694E-3
MEAN_MOTION_DDOT = 0

CCSDS_OMM_VERS = 2.0
CREATION_DATE  = 
ORIGINATOR     = 

OBJECT_NAME    = STARLINK-36891
OBJECT_ID      = 2026-040K
CENTER_NAME    = EARTH
REF_FRAME      = TEME
TIME_SYSTEM    = UTC
MEAN_ELEMENT_THEORY = SGP/SGP4

EPOCH          = 2026-03-21T22:00:00.999936
MEAN_MOTION    = 15.75127527
ECCENTRICITY   = .0001423
INCLINATION    = 97.2854
RA_OF_ASC_NODE = 29.9762
ARG_OF_PERICENTER = 96.8852
MEAN_ANOMALY   = 159.9461

EPHEMERIS_TYPE = 0
CLASSIFICATION_TYPE = U
NORAD_CAT_ID   = 68024
ELEMENT_SET_NO = 999
REV_AT_EPOCH   = 439
BSTAR          = .49756007E-3
MEAN_MOTION_DOT = .74533E-3
MEAN_MOTION_DDOT = 0

CCSDS_OMM_VERS = 2.0
CREATION_DATE  = 
ORIGINATOR     = 

OBJECT_NAME    = STARLINK-36378
OBJECT_ID      = 2026-040L
CENTER_NAME    = EARTH
REF_FRAME      = TEME
TIME_SYSTEM    = UTC
MEAN_ELEMENT_THEORY = SGP/SGP4

EPOCH          = 2026-03-21T22:00:00.999936
MEAN_MOTION    = 15.75080002
ECCENTRICITY   = .00015386
INCLINATION    = 97.2849
RA_OF_ASC_NODE = 29.9831
ARG_OF_PERICENTER = 56.4568
MEAN_ANOMALY   = 208.4334

EPHEMERIS_TYPE = 0
CLASSIFICATION_TYPE = U
NORAD_CAT_ID   = 68025
ELEMENT_SET_NO = 999
REV_AT_EPOCH   = 434
BSTAR          = .56648874E-3
MEAN_MOTION_DOT = .84805E-3
MEAN_MOTION_DDOT = 0

CCSDS_OMM_VERS = 2.0
CREATION_DATE  = 
ORIGINATOR     = 

OBJECT_NAME    = STARLINK-36884
OBJECT_ID      = 2026-040M
CENTER_NAME    = EARTH
REF_FRAME      = TEME
TIME_SYSTEM    = UTC
MEAN_ELEMENT_THEORY = SGP/SGP4

EPOCH          = 2026-03-21T22:00:00.999936
MEAN_MOTION    = 15.75159872
ECCENTRICITY   = .00015245
INCLINATION    = 97.2852
RA_OF_ASC_NODE = 29.9790
ARG_OF_PERICENTER = 80.1692
MEAN_ANOMALY   = 182.6601

EPHEMERIS_TYPE = 0
CLASSIFICATION_TYPE = U
NORAD_CAT_ID   = 68026
ELEMENT_SET_NO = 999
REV_AT_EPOCH   = 439
BSTAR          = -.21070466E-3
MEAN_MOTION_DOT = -.31402E-3
MEAN_MOTION_DDOT = 0

CCSDS_OMM_VERS = 2.0
CREATION_DATE  = 
ORIGINATOR     = 

OBJECT_NAME    = STARLINK-36940
OBJECT_ID      = 2026-040N
CENTER_NAME    = EARTH
REF_FRAME      = TEME
TIME_SYSTEM    = UTC
MEAN_ELEMENT_THEORY = SGP/SGP4

EPOCH          = 2026-03-21T22:00:00.999936
MEAN_MOTION    = 15.75092522
ECCENTRICITY   = .00012117
INCLINATION    = 97.2848
RA_OF_ASC_NODE = 30.0080
ARG_OF_PERICENTER = 105.0084
MEAN_ANOMALY   = 207.8314

EPHEMERIS_TYPE = 0
CLASSIFICATION_TYPE = U
NORAD_CAT_ID   = 68027
ELEMENT_SET_NO = 999
REV_AT_EPOCH   = 449
BSTAR          = .47042242E-3
MEAN_MOTION_DOT = .70319E-3
MEAN_MOTION_DDOT = 0

CCSDS_OMM_VERS = 2.0
CREATION_DATE  = 
ORIGINATOR     = 

OBJECT_NAME    = STARLINK-36253
OBJECT_ID      = 2026-040P
CENTER_NAME    = EARTH
REF_FRAME      = TEME
TIME_SYSTEM    = UTC
MEAN_ELEMENT_THEORY = SGP/SGP4

EPOCH          = 2026-03-21T22:00:00.999936
MEAN_MOTION    = 15.61109970
ECCENTRICITY   = .00015478
INCLINATION    = 97.2849
RA_OF_ASC_NODE = 29.7113
ARG_OF_PERICENTER = 100.3377
MEAN_ANOMALY   = 249.7475

EPHEMERIS_TYPE = 0
CLASSIFICATION_TYPE = U
NORAD_CAT_ID   = 68028
ELEMENT_SET_NO = 999
REV_AT_EPOCH   = 449
BSTAR          = -.26598642E-1
MEAN_MOTION_DOT = -.197141E-1
MEAN_MOTION_DDOT = 0

CCSDS_OMM_VERS = 2.0
CREATION_DATE  = 
ORIGINATOR     = 

OBJECT_NAME    = STARLINK-36944
OBJECT_ID      = 2026-040Q
CENTER_NAME    = EARTH
REF_FRAME      = TEME
TIME_SYSTEM    = UTC
MEAN_ELEMENT_THEORY = SGP/SGP4

EPOCH          = 2026-03-21T22:00:00.999936
MEAN_MOTION    = 15.75089380
ECCENTRICITY   = .00013595
INCLINATION    = 97.2856
RA_OF_ASC_NODE = 29.9812
ARG_OF_PERICENTER = 75.7735
MEAN_ANOMALY   = 193.0893

EPHEMERIS_TYPE = 0
CLASSIFICATION_TYPE = U
NORAD_CAT_ID   = 68029
ELEMENT_SET_NO = 999
REV_AT_EPOCH   = 439
BSTAR          = .64915074E-3
MEAN_MOTION_DOT = .97381E-3
MEAN_MOTION_DDOT = 0

